BEIJING 1               
1 28890U 05043A   22033.45603255  .00000161  00000+0  41981-4 0  9993
2 28890  98.0992 158.5141 0014110 234.2288 125.7631 14.61379170867417
HJ-1A                   
1 33320U 08041A   22033.40605604  .00000205  00000+0  35452-4 0  9998
2 33320  97.6960  72.6801 0020063 314.3874  45.5702 14.77726399722442
HJ-1B                   
1 33321U 08041B   22033.40498327  .00000479  00000+0  73475-4 0  9991
2 33321  97.7152  75.9725 0034071 331.7660  28.1706 14.77529889722444
YAOGAN 4                
1 33446U 08061A   22033.38674880  .00000345  00000+0  55741-4 0  9996
2 33446  97.8040 337.7563 0015515 207.4154 152.6240 14.77215714709650
DEIMOS-1                
1 35681U 09041A   22033.46440699  .00000280  00000+0  51950-4 0  9992
2 35681  97.7281 251.3397 0000721  18.3563 341.7648 14.71960488671910
UK-DMC 2                
1 35683U 09041C   22033.42896899  .00000270  00000+0  51169-4 0  9998
2 35683  97.6854 213.9083 0001484  78.4806 281.6563 14.71279424671659
RISAT 1                 
1 38248U 12017A   22033.47908916  .00002287  00000+0  14063-3 0  9995
2 38248  97.5570  46.4086 0004554  25.8968 334.2489 15.11039020538454
DMC3-FM1                
1 40715U 15032A   22033.56863242  .00000246  00000+0  37712-4 0  9999
2 40715  97.8669 282.8918 0004719 234.3583 125.7187 14.81919745353316
DMC3-FM2                
1 40716U 15032B   22033.59060917  .00000176  00000+0  28806-4 0  9997
2 40716  97.8700 283.4890 0006886 237.0900 122.9664 14.81893453353326
DMC3-FM3                
1 40717U 15032C   22033.54594793  .00000336  00000+0  49010-4 0  9995
2 40717  97.8734 284.3043 0008193 235.6103 124.4332 14.81942350353315
